[{"OBJECT_NAME":"YAOGAN-30 10A","OBJECT_ID":"2021-055A","EPOCH":"2026-03-09T23:48:28.291104","MEAN_MOTION":15.02193247,"ECCENTRICITY":0.0004983,"INCLINATION":34.9965,"RA_OF_ASC_NODE":36.5937,"ARG_OF_PERICENTER":279.793,"MEAN_ANOMALY":80.2215,"EPHEMERIS_TYPE":0,"CLASSIFICATION_TYPE":"U","NORAD_CAT_ID":48860,"ELEMENT_SET_NO":999,"REV_AT_EPOCH":25825,"BSTAR":0.00036861198,"MEAN_MOTION_DOT":4.929e-5,"MEAN_MOTION_DDOT":0},{"OBJECT_NAME":"STARLINK-34977","OBJECT_ID":"2025-179L","EPOCH":"2026-03-09T16:02:19.936320","MEAN_MOTION":15.05645126,"ECCENTRICITY":2.385e-5,"INCLINATION":97.6037,"RA_OF_ASC_NODE":112.9186,"ARG_OF_PERICENTER":77.8914,"MEAN_ANOMALY":282.2339,"EPHEMERIS_TYPE":0,"CLASSIFICATION_TYPE":"U","NORAD_CAT_ID":65245,"ELEMENT_SET_NO":999,"REV_AT_EPOCH":3178,"BSTAR":2.4280506e-5,"MEAN_MOTION_DOT":2.9e-6,"MEAN_MOTION_DDOT":0}]
